[
    {
        "Altitude(m)": 710865.6927439219,
        "Argument of Periapsis(deg)": 0.007973084830638947,
        "Eccentricity": 0.0,
        "Inclination(deg)": 45.0,
        "Latitude(deg)": -27.818582017697732,
        "Longitude(deg)": 157.81113497063893,
        "Mean Anomaly(deg)": -41.01764834676331,
        "RAAN(deg)": 289.99247364097926,
        "Satellite Name": "Constellation 1 1295",
        "Satellite Number": 1295,
        "Semi-Major Axis(m)": 7083131.272910544,
        "Time(s)": 133
    },
    {
        "Altitude(m)": 710851.8500994643,
        "Argument of Periapsis(deg)": 0.008033032836884352,
        "Eccentricity": 0.0,
        "Inclination(deg)": 45.0,
        "Latitude(deg)": -27.781921522490254,
        "Longitude(deg)": 157.86163049020288,
        "Mean Anomaly(deg)": -40.95694720651348,
        "RAAN(deg)": 289.99241705181373,
        "Satellite Name": "Constellation 1 1295",
        "Satellite Number": 1295,
        "Semi-Major Axis(m)": 7083131.272910544,
        "Time(s)": 134
    },
    {
        "Altitude(m)": 710838.0063464292,
        "Argument of Periapsis(deg)": 0.008092980843129758,
        "Eccentricity": 0.0,
        "Inclination(deg)": 45.0,
        "Latitude(deg)": -27.745239196917343,
        "Longitude(deg)": 157.9120895381305,
        "Mean Anomaly(deg)": -40.89624606626364,
        "RAAN(deg)": 289.99236046264815,
        "Satellite Name": "Constellation 1 1295",
        "Satellite Number": 1295,
        "Semi-Major Axis(m)": 7083131.272910544,
        "Time(s)": 135
    },
    {
        "Altitude(m)": 710824.1615327442,
        "Argument of Periapsis(deg)": 0.008152928849375162,
        "Eccentricity": 0.0,
        "Inclination(deg)": 45.0,
        "Latitude(deg)": -27.708535088434832,
        "Longitude(deg)": 157.9625121740048,
        "Mean Anomaly(deg)": -40.835544926013604,
        "RAAN(deg)": 289.9923038734825,
        "Satellite Name": "Constellation 1 1295",
        "Satellite Number": 1295,
        "Semi-Major Axis(m)": 7083131.272910544,
        "Time(s)": 136
    },
    {
        "Altitude(m)": 710810.3157063354,
        "Argument of Periapsis(deg)": 0.008212876855620568,
        "Eccentricity": 0.0,
        "Inclination(deg)": 45.0,
        "Latitude(deg)": -27.671809244430435,
        "Longitude(deg)": 158.01289845743122,
        "Mean Anomaly(deg)": -40.774843785763764,
        "RAAN(deg)": 289.992247284317,
        "Satellite Name": "Constellation 1 1295",
        "Satellite Number": 1295,
        "Semi-Major Axis(m)": 7083131.272910544,
        "Time(s)": 137
    },
    {
        "Altitude(m)": 710796.4689151183,
        "Argument of Periapsis(deg)": 0.008272824861865974,
        "Eccentricity": 0.0,
        "Inclination(deg)": 45.0,
        "Latitude(deg)": -27.635061712223443,
        "Longitude(deg)": 158.06324844803729,
        "Mean Anomaly(deg)": -40.71414264551393,
        "RAAN(deg)": 289.9921906951514,
        "Satellite Name": "Constellation 1 1295",
        "Satellite Number": 1295,
        "Semi-Major Axis(m)": 7083131.272910544,
        "Time(s)": 138
    },
    {
        "Altitude(m)": 710782.6212070076,
        "Argument of Periapsis(deg)": 0.00833277286811138,
        "Eccentricity": 0.0,
        "Inclination(deg)": 45.0,
        "Latitude(deg)": -27.598292539064914,
        "Longitude(deg)": 158.11356220547256,
        "Mean Anomaly(deg)": -40.65344150526394,
        "RAAN(deg)": 289.9921341059859,
        "Satellite Name": "Constellation 1 1295",
        "Satellite Number": 1295,
        "Semi-Major Axis(m)": 7083131.272910544,
        "Time(s)": 139
    },
    {
        "Altitude(m)": 710768.7726298991,
        "Argument of Periapsis(deg)": 0.008392720874356788,
        "Eccentricity": 0.0,
        "Inclination(deg)": 45.0,
        "Latitude(deg)": -27.56150177213807,
        "Longitude(deg)": 158.16383978940712,
        "Mean Anomaly(deg)": -40.592740365014,
        "RAAN(deg)": 289.9920775168203,
        "Satellite Name": "Constellation 1 1295",
        "Satellite Number": 1295,
        "Semi-Major Axis(m)": 7083131.272910544,
        "Time(s)": 140
    },
    {
        "Altitude(m)": 710754.9232316887,
        "Argument of Periapsis(deg)": 0.008452668880602192,
        "Eccentricity": 0.0,
        "Inclination(deg)": 45.0,
        "Latitude(deg)": -27.52468945855771,
        "Longitude(deg)": 158.21408109143513,
        "Mean Anomaly(deg)": -40.53203922476417,
        "RAAN(deg)": 289.9920209276548,
        "Satellite Name": "Constellation 1 1295",
        "Satellite Number": 1295,
        "Semi-Major Axis(m)": 7083131.272910544,
        "Time(s)": 141
    },
    {
        "Altitude(m)": 710741.0730602643,
        "Argument of Periapsis(deg)": 0.008512616886847598,
        "Eccentricity": 0.0,
        "Inclination(deg)": 45.0,
        "Latitude(deg)": -27.487855645371422,
        "Longitude(deg)": 158.26428650746186,
        "Mean Anomaly(deg)": -40.47133808451429,
        "RAAN(deg)": 289.99196433848914,
        "Satellite Name": "Constellation 1 1295",
        "Satellite Number": 1295,
        "Semi-Major Axis(m)": 7083131.272910544,
        "Time(s)": 142
    },
    {
        "Altitude(m)": 710727.2221635001,
        "Argument of Periapsis(deg)": 0.008572564893093004,
        "Eccentricity": 0.0,
        "Inclination(deg)": 45.0,
        "Latitude(deg)": -27.45100037955829,
        "Longitude(deg)": 158.31445592912124,
        "Mean Anomaly(deg)": -40.4106369442644,
        "RAAN(deg)": 289.99190774932356,
        "Satellite Name": "Constellation 1 1295",
        "Satellite Number": 1295,
        "Semi-Major Axis(m)": 7083131.272910544,
        "Time(s)": 143
    },
    {
        "Altitude(m)": 710713.3705892672,
        "Argument of Periapsis(deg)": 0.008632512899338408,
        "Eccentricity": 0.0,
        "Inclination(deg)": 45.0,
        "Latitude(deg)": -27.41412370802967,
        "Longitude(deg)": 158.3645894161638,
        "Mean Anomaly(deg)": -40.34993580401446,
        "RAAN(deg)": 289.99185116015803,
        "Satellite Name": "Constellation 1 1295",
        "Satellite Number": 1295,
        "Semi-Major Axis(m)": 7083131.272910544,
        "Time(s)": 144
    },
    {
        "Altitude(m)": 710699.5183854197,
        "Argument of Periapsis(deg)": 0.008692460905583814,
        "Eccentricity": 0.0,
        "Inclination(deg)": 45.0,
        "Latitude(deg)": -27.37722567762947,
        "Longitude(deg)": 158.4146870283586,
        "Mean Anomaly(deg)": -40.289234663764624,
        "RAAN(deg)": 289.99179457099245,
        "Satellite Name": "Constellation 1 1295",
        "Satellite Number": 1295,
        "Semi-Major Axis(m)": 7083131.272910544,
        "Time(s)": 145
    },
    {
        "Altitude(m)": 710685.6655998101,
        "Argument of Periapsis(deg)": 0.00875240891182922,
        "Eccentricity": 0.0,
        "Inclination(deg)": 45.0,
        "Latitude(deg)": -27.340306335133683,
        "Longitude(deg)": 158.46474882549342,
        "Mean Anomaly(deg)": -40.228533523514635,
        "RAAN(deg)": 289.99173798182693,
        "Satellite Name": "Constellation 1 1295",
        "Satellite Number": 1295,
        "Semi-Major Axis(m)": 7083131.272910544,
        "Time(s)": 146
    },
    {
        "Altitude(m)": 710671.8122802847,
        "Argument of Periapsis(deg)": 0.008812356918074627,
        "Eccentricity": 0.0,
        "Inclination(deg)": 45.0,
        "Latitude(deg)": -27.30336572725104,
        "Longitude(deg)": 158.5147748673734,
        "Mean Anomaly(deg)": -40.16783238326485,
        "RAAN(deg)": 289.9916813926613,
        "Satellite Name": "Constellation 1 1295",
        "Satellite Number": 1295,
        "Semi-Major Axis(m)": 7083131.272910544,
        "Time(s)": 147
    },
    {
        "Altitude(m)": 710657.9584746677,
        "Argument of Periapsis(deg)": 0.008872304924320031,
        "Eccentricity": 0.0,
        "Inclination(deg)": 45.0,
        "Latitude(deg)": -27.266403900622166,
        "Longitude(deg)": 158.5647650457251,
        "Mean Anomaly(deg)": -40.10713124301491,
        "RAAN(deg)": 289.9916248034957,
        "Satellite Name": "Constellation 1 1295",
        "Satellite Number": 1295,
        "Semi-Major Axis(m)": 7083131.272910544,
        "Time(s)": 148
    },
    {
        "Altitude(m)": 710644.1042307871,
        "Argument of Periapsis(deg)": 0.008932252930565437,
        "Eccentricity": 0.0,
        "Inclination(deg)": 45.0,
        "Latitude(deg)": -27.229420901821396,
        "Longitude(deg)": 158.61471975658247,
        "Mean Anomaly(deg)": -40.04643010276498,
        "RAAN(deg)": 289.9915682143302,
        "Satellite Name": "Constellation 1 1295",
        "Satellite Number": 1295,
        "Semi-Major Axis(m)": 7083131.272910544,
        "Time(s)": 149
    },
    {
        "Altitude(m)": 710630.2495964499,
        "Argument of Periapsis(deg)": 0.008992200936810843,
        "Eccentricity": 0.0,
        "Inclination(deg)": 45.0,
        "Latitude(deg)": -27.19241677735488,
        "Longitude(deg)": 158.66463889170515,
        "Mean Anomaly(deg)": -39.98572896251509,
        "RAAN(deg)": 289.9915116251646,
        "Satellite Name": "Constellation 1 1295",
        "Satellite Number": 1295,
        "Semi-Major Axis(m)": 7083131.272910544,
        "Time(s)": 150
    },
    {
        "Altitude(m)": 710616.3946194565,
        "Argument of Periapsis(deg)": 0.009052148943056249,
        "Eccentricity": 0.0,
        "Inclination(deg)": 45.0,
        "Latitude(deg)": -27.1553915736617,
        "Longitude(deg)": 158.71452251096633,
        "Mean Anomaly(deg)": -39.92502782226525,
        "RAAN(deg)": 289.9914550359991,
        "Satellite Name": "Constellation 1 1295",
        "Satellite Number": 1295,
        "Semi-Major Axis(m)": 7083131.272910544,
        "Time(s)": 151
    }
]